{
  "type": "FeatureCollection",
  "features": [
    {
      "type": "Feature",
      "properties": {
        "id": "P1",
        "layer": "PLOTS",
        "type": "plot",
        "area": 108.0,
        "attrs": {
          "landuse": "residential",
          "floors": 0,
          "height": 0,
          "notes": ""
        }
      },
      "geometry": {
        "type": "Polygon",
        "coordinates": [
          [
            [
              49.377171054312484,
              85.70538493591742
            ],
            [
              61.377171054312484,
              85.70538493591742
            ],
            [
              61.377171054312484,
              94.70538493591742
            ],
            [
              49.377171054312484,
              94.70538493591742
            ]
          ]
        ]
      }
    },
    {
      "type": "Feature",
      "properties": {
        "id": "P2",
        "layer": "PLOTS",
        "type": "plot",
        "area": 108.0,
        "attrs": {
          "landuse": "residential",
          "floors": 0,
          "height": 0,
          "notes": ""
        }
      },
      "geometry": {
        "type": "Polygon",
        "coordinates": [
          [
            [
              82.37717105431256,
              85.70538493591742
            ],
            [
              70.37717105431256,
              85.70538493591742
            ],
            [
              70.37717105431256,
              94.70538493591742
            ],
            [
              82.37717105431256,
              94.70538493591742
            ]
          ]
        ]
      }
    },
    {
      "type": "Feature",
      "properties": {
        "id": "P3",
        "layer": "PLOTS",
        "type": "plot",
        "area": 108.00000000000045,
        "attrs": {
          "landuse": "residential",
          "floors": 0,
          "height": 0,
          "notes": ""
        }
      },
      "geometry": {
        "type": "Polygon",
        "coordinates": [
          [
            [
              49.377171054312484,
              76.70538493591742
            ],
            [
              61.377171054312484,
              76.70538493591742
            ],
            [
              61.377171054312484,
              85.70538493591742
            ],
            [
              49.377171054312484,
              85.70538493591742
            ]
          ]
        ]
      }
    },
    {
      "type": "Feature",
      "properties": {
        "id": "P4",
        "layer": "PLOTS",
        "type": "plot",
        "area": 108.0,
        "attrs": {
          "landuse": "residential",
          "floors": 0,
          "height": 0,
          "notes": ""
        }
      },
      "geometry": {
        "type": "Polygon",
        "coordinates": [
          [
            [
              82.37717105431256,
              76.70538493591742
            ],
            [
              70.37717105431256,
              76.70538493591742
            ],
            [
              70.37717105431256,
              85.70538493591742
            ],
            [
              82.37717105431256,
              85.70538493591742
            ]
          ]
        ]
      }
    },
    {
      "type": "Feature",
      "properties": {
        "id": "P5",
        "layer": "PLOTS",
        "type": "plot",
        "area": 108.0,
        "attrs": {
          "landuse": "residential",
          "floors": 0,
          "height": 0,
          "notes": ""
        }
      },
      "geometry": {
        "type": "Polygon",
        "coordinates": [
          [
            [
              49.377171054312484,
              67.70538493591742
            ],
            [
              61.377171054312484,
              67.70538493591742
            ],
            [
              61.377171054312484,
              76.70538493591742
            ],
            [
              49.377171054312484,
              76.70538493591742
            ]
          ]
        ]
      }
    },
    {
      "type": "Feature",
      "properties": {
        "id": "P6",
        "layer": "PLOTS",
        "type": "plot",
        "area": 108.00000000000091,
        "attrs": {
          "landuse": "residential",
          "floors": 0,
          "height": 0,
          "notes": ""
        }
      },
      "geometry": {
        "type": "Polygon",
        "coordinates": [
          [
            [
              82.37717105431256,
              67.70538493591742
            ],
            [
              70.37717105431256,
              67.70538493591742
            ],
            [
              70.37717105431256,
              76.70538493591742
            ],
            [
              82.37717105431256,
              76.70538493591742
            ]
          ]
        ]
      }
    },
    {
      "type": "Feature",
      "properties": {
        "id": "P7",
        "layer": "PLOTS",
        "type": "plot",
        "area": 107.99999999999955,
        "attrs": {
          "landuse": "residential",
          "floors": 0,
          "height": 0,
          "notes": ""
        }
      },
      "geometry": {
        "type": "Polygon",
        "coordinates": [
          [
            [
              49.377171054312484,
              58.70538493591742
            ],
            [
              61.377171054312484,
              58.70538493591742
            ],
            [
              61.377171054312484,
              67.70538493591742
            ],
            [
              49.377171054312484,
              67.70538493591742
            ]
          ]
        ]
      }
    },
    {
      "type": "Feature",
      "properties": {
        "id": "P8",
        "layer": "PLOTS",
        "type": "plot",
        "area": 107.99999999999909,
        "attrs": {
          "landuse": "residential",
          "floors": 0,
          "height": 0,
          "notes": ""
        }
      },
      "geometry": {
        "type": "Polygon",
        "coordinates": [
          [
            [
              82.37717105431256,
              58.70538493591742
            ],
            [
              70.37717105431256,
              58.70538493591742
            ],
            [
              70.37717105431256,
              67.70538493591742
            ],
            [
              82.37717105431256,
              67.70538493591742
            ]
          ]
        ]
      }
    },
    {
      "type": "Feature",
      "properties": {
        "id": "P9",
        "layer": "PLOTS",
        "type": "plot",
        "area": 108.0,
        "attrs": {
          "landuse": "residential",
          "floors": 0,
          "height": 0,
          "notes": ""
        }
      },
      "geometry": {
        "type": "Polygon",
        "coordinates": [
          [
            [
              49.377171054312484,
              49.70538493591742
            ],
            [
              61.377171054312484,
              49.70538493591742
            ],
            [
              61.377171054312484,
              58.70538493591742
            ],
            [
              49.377171054312484,
              58.70538493591742
            ]
          ]
        ]
      }
    },
    {
      "type": "Feature",
      "properties": {
        "id": "P10",
        "layer": "PLOTS",
        "type": "plot",
        "area": 108.00000000000045,
        "attrs": {
          "landuse": "residential",
          "floors": 0,
          "height": 0,
          "notes": ""
        }
      },
      "geometry": {
        "type": "Polygon",
        "coordinates": [
          [
            [
              82.37717105431256,
              49.70538493591742
            ],
            [
              70.37717105431256,
              49.70538493591742
            ],
            [
              70.37717105431256,
              58.70538493591742
            ],
            [
              82.37717105431256,
              58.70538493591742
            ]
          ]
        ]
      }
    },
    {
      "type": "Feature",
      "properties": {
        "id": "P11",
        "layer": "PLOTS",
        "type": "plot",
        "area": 108.0,
        "attrs": {
          "landuse": "residential",
          "floors": 0,
          "height": 0,
          "notes": ""
        }
      },
      "geometry": {
        "type": "Polygon",
        "coordinates": [
          [
            [
              49.377171054312484,
              40.70538493591742
            ],
            [
              61.377171054312484,
              40.70538493591742
            ],
            [
              61.377171054312484,
              49.70538493591742
            ],
            [
              49.377171054312484,
              49.70538493591742
            ]
          ]
        ]
      }
    },
    {
      "type": "Feature",
      "properties": {
        "id": "P12",
        "layer": "PLOTS",
        "type": "plot",
        "area": 107.99999999999955,
        "attrs": {
          "landuse": "residential",
          "floors": 0,
          "height": 0,
          "notes": ""
        }
      },
      "geometry": {
        "type": "Polygon",
        "coordinates": [
          [
            [
              82.37717105431256,
              40.70538493591742
            ],
            [
              70.37717105431256,
              40.70538493591742
            ],
            [
              70.37717105431256,
              49.70538493591742
            ],
            [
              82.37717105431256,
              49.70538493591742
            ]
          ]
        ]
      }
    },
    {
      "type": "Feature",
      "properties": {
        "id": "P13",
        "layer": "PLOTS",
        "type": "plot",
        "area": 108.00000000000023,
        "attrs": {
          "landuse": "residential",
          "floors": 0,
          "height": 0,
          "notes": ""
        }
      },
      "geometry": {
        "type": "Polygon",
        "coordinates": [
          [
            [
              49.377171054312484,
              31.70538493591742
            ],
            [
              61.377171054312484,
              31.70538493591742
            ],
            [
              61.377171054312484,
              40.70538493591742
            ],
            [
              49.377171054312484,
              40.70538493591742
            ]
          ]
        ]
      }
    },
    {
      "type": "Feature",
      "properties": {
        "id": "P14",
        "layer": "PLOTS",
        "type": "plot",
        "area": 108.0,
        "attrs": {
          "landuse": "residential",
          "floors": 0,
          "height": 0,
          "notes": ""
        }
      },
      "geometry": {
        "type": "Polygon",
        "coordinates": [
          [
            [
              82.37717105431256,
              31.70538493591742
            ],
            [
              70.37717105431256,
              31.70538493591742
            ],
            [
              70.37717105431256,
              40.70538493591742
            ],
            [
              82.37717105431256,
              40.70538493591742
            ]
          ]
        ]
      }
    },
    {
      "type": "Feature",
      "properties": {
        "id": "P15",
        "layer": "PLOTS",
        "type": "plot",
        "area": 108.0,
        "attrs": {
          "landuse": "residential",
          "floors": 0,
          "height": 0,
          "notes": ""
        }
      },
      "geometry": {
        "type": "Polygon",
        "coordinates": [
          [
            [
              49.377171054312484,
              22.70538493591742
            ],
            [
              61.377171054312484,
              22.70538493591742
            ],
            [
              61.377171054312484,
              31.70538493591742
            ],
            [
              49.377171054312484,
              31.70538493591742
            ]
          ]
        ]
      }
    },
    {
      "type": "Feature",
      "properties": {
        "id": "P16",
        "layer": "PLOTS",
        "type": "plot",
        "area": 108.00000000000023,
        "attrs": {
          "landuse": "residential",
          "floors": 0,
          "height": 0,
          "notes": ""
        }
      },
      "geometry": {
        "type": "Polygon",
        "coordinates": [
          [
            [
              82.37717105431256,
              22.70538493591742
            ],
            [
              70.37717105431256,
              22.70538493591742
            ],
            [
              70.37717105431256,
              31.70538493591742
            ],
            [
              82.37717105431256,
              31.70538493591742
            ]
          ]
        ]
      }
    },
    {
      "type": "Feature",
      "properties": {
        "id": "P17",
        "layer": "PLOTS",
        "type": "plot",
        "area": 107.99999999999989,
        "attrs": {
          "landuse": "residential",
          "floors": 0,
          "height": 0,
          "notes": ""
        }
      },
      "geometry": {
        "type": "Polygon",
        "coordinates": [
          [
            [
              49.377171054312484,
              13.70538493591742
            ],
            [
              61.377171054312484,
              13.70538493591742
            ],
            [
              61.377171054312484,
              22.70538493591742
            ],
            [
              49.377171054312484,
              22.70538493591742
            ]
          ]
        ]
      }
    },
    {
      "type": "Feature",
      "properties": {
        "id": "P18",
        "layer": "PLOTS",
        "type": "plot",
        "area": 107.99999999999989,
        "attrs": {
          "landuse": "residential",
          "floors": 0,
          "height": 0,
          "notes": ""
        }
      },
      "geometry": {
        "type": "Polygon",
        "coordinates": [
          [
            [
              82.37717105431256,
              13.70538493591742
            ],
            [
              70.37717105431256,
              13.70538493591742
            ],
            [
              70.37717105431256,
              22.70538493591742
            ],
            [
              82.37717105431256,
              22.70538493591742
            ]
          ]
        ]
      }
    },
    {
      "type": "Feature",
      "properties": {
        "id": "P19",
        "layer": "PLOTS",
        "type": "plot",
        "area": 108.00000000000003,
        "attrs": {
          "landuse": "residential",
          "floors": 0,
          "height": 0,
          "notes": ""
        }
      },
      "geometry": {
        "type": "Polygon",
        "coordinates": [
          [
            [
              49.377171054312484,
              4.7053849359174205
            ],
            [
              61.377171054312484,
              4.7053849359174205
            ],
            [
              61.377171054312484,
              13.70538493591742
            ],
            [
              49.377171054312484,
              13.70538493591742
            ]
          ]
        ]
      }
    },
    {
      "type": "Feature",
      "properties": {
        "id": "P20",
        "layer": "PLOTS",
        "type": "plot",
        "area": 108.00000000000006,
        "attrs": {
          "landuse": "residential",
          "floors": 0,
          "height": 0,
          "notes": ""
        }
      },
      "geometry": {
        "type": "Polygon",
        "coordinates": [
          [
            [
              82.37717105431256,
              4.7053849359174205
            ],
            [
              70.37717105431256,
              4.7053849359174205
            ],
            [
              70.37717105431256,
              13.70538493591742
            ],
            [
              82.37717105431256,
              13.70538493591742
            ]
          ]
        ]
      }
    },
    {
      "type": "Feature",
      "properties": {
        "id": "ROAD1",
        "layer": "ROAD",
        "type": "road",
        "area": 810.000000000005
      },
      "geometry": {
        "type": "Polygon",
        "coordinates": [
          [
            [
              61.377171054312484,
              94.70538493591742
            ],
            [
              70.37717105431254,
              94.70538493591742
            ],
            [
              70.37717105431254,
              4.7053849359174125
            ],
            [
              61.377171054312484,
              4.7053849359174205
            ]
          ]
        ]
      }
    }
  ]
}